{"type": "FeatureCollection", "features": [ {"type": "Feature", "properties": {"norad_id": 38197, "name": "COSMOS 2251 DEB", "group": "cosmos-2251-debris", "lat": -19.923638180048552, "lon": 176.32256697857352, "alt_km": 572.9161623235095, "timestamp": "2025-12-16T03:53:27.453425+00:00", "meta": {"OBJECT_NAME": "COSMOS 2251 DEB", "OBJECT_ID": "1993-036BSM", "EPOCH": "2025-12-14T07:00:04.920768", "MEAN_MOTION": 14.74139747, "ECCENTRICITY": 0.0125907, "INCLINATION": 73.9403, "RA_OF_ASC_NODE": 354.0006, "ARG_OF_PERICENTER": 231.0385, "MEAN_ANOMALY": 127.9518, "EPHEMERIS_TYPE": 0, "CLASSIFICATION_TYPE": "U", "NORAD_CAT_ID": 38197, "ELEMENT_SET_NO": 999, "REV_AT_EPOCH": 85778, "BSTAR": 0.003963351, "MEAN_MOTION_DOT": 0.00029782, "MEAN_MOTION_DDOT": 0}, "tle": {"line1": "1 38197U 93036BSM 25348.29172362  .00029782  00000+0  39634-2 0  9997", "line2": "2 38197  73.9403 354.0006 0125907 231.0385 127.9518 14.74139747857785"}}, "geometry": {"type": "Point", "coordinates": [176.32256697857352, -19.923638180048552]}}, {"type": "Feature", "properties": {"norad_id": 38199, "name": "COSMOS 2251 DEB", "group": "cosmos-2251-debris", "lat": 73.9208936267643, "lon": 143.2217167391742, "alt_km": 1080.114340574648, "timestamp": "2025-12-16T03:53:27.453435+00:00", "meta": {"OBJECT_NAME": "COSMOS 2251 DEB", "OBJECT_ID": "1993-036BSP", "EPOCH": "2025-12-14T12:46:10.366752", "MEAN_MOTION": 13.6479649, "ECCENTRICITY": 0.03697095, "INCLINATION": 73.9561, "RA_OF_ASC_NODE": 59.2441, "ARG_OF_PERICENTER": 345.3717, "MEAN_ANOMALY": 13.6916, "EPHEMERIS_TYPE": 0, "CLASSIFICATION_TYPE": "U", "NORAD_CAT_ID": 38199, "ELEMENT_SET_NO": 999, "REV_AT_EPOCH": 61046, "BSTAR": 0.00058391459, "MEAN_MOTION_DOT": 7.27e-06, "MEAN_MOTION_DDOT": 0}, "tle": {"line1": "1 38199U 93036BSP 25348.53206443  .00000727  00000+0  58391-3 0  9994", "line2": "2 38199  73.9561  59.2441 0369709 345.3717  13.6916 13.64796490610464"}}, "geometry": {"type": "Point", "coordinates": [143.2217167391742, 73.9208936267643]}}, {"type": "Feature", "properties": {"norad_id": 38208, "name": "COSMOS 2251 DEB", "group": "cosmos-2251-debris", "lat": -73.92161076769408, "lon": -12.245174559388273, "alt_km": 624.2146131073769, "timestamp": "2025-12-16T03:53:27.453446+00:00", "meta": {"OBJECT_NAME": "COSMOS 2251 DEB", "OBJECT_ID": "1993-036BSY", "EPOCH": "2025-12-15T05:46:42.754368", "MEAN_MOTION": 14.8400172, "ECCENTRICITY": 0.00017643, "INCLINATION": 74.0057, "RA_OF_ASC_NODE": 73.9438, "ARG_OF_PERICENTER": 154.1528, "MEAN_ANOMALY": 237.1904, "EPHEMERIS_TYPE": 0, "CLASSIFICATION_TYPE": "U", "NORAD_CAT_ID": 38208, "ELEMENT_SET_NO": 999, "REV_AT_EPOCH": 71196, "BSTAR": 0.0014297718, "MEAN_MOTION_DOT": 0.00011892, "MEAN_MOTION_DDOT": 0}, "tle": {"line1": "1 38208U 93036BSY 25349.24077262  .00011892  00000+0  14298-2 0  9991", "line2": "2 38208  74.0057  73.9438 0001764 154.1528 237.1904 14.84001720711961"}}, "geometry": {"type": "Point", "coordinates": [-12.245174559388273, -73.92161076769408]}}, {"type": "Feature", "properties": {"norad_id": 38212, "name": "COSMOS 2251 DEB", "group": "cosmos-2251-debris", "lat": 33.432341738552104, "lon": -120.99162246445606, "alt_km": 570.1360878735477, "timestamp": "2025-12-16T03:53:27.453456+00:00", "meta": {"OBJECT_NAME": "COSMOS 2251 DEB", "OBJECT_ID": "1993-036BTC", "EPOCH": "2025-12-13T23:14:48.711840", "MEAN_MOTION": 14.77697426, "ECCENTRICITY": 0.00923484, "INCLINATION": 74.0527, "RA_OF_ASC_NODE": 74.1891, "ARG_OF_PERICENTER": 140.8526, "MEAN_ANOMALY": 219.9379, "EPHEMERIS_TYPE": 0, "CLASSIFICATION_TYPE": "U", "NORAD_CAT_ID": 38212, "ELEMENT_SET_NO": 999, "REV_AT_EPOCH": 81328, "BSTAR": 0.00051158029, "MEAN_MOTION_DOT": 3.901e-05, "MEAN_MOTION_DDOT": 0}, "tle": {"line1": "1 38212U 93036BTC 25347.96861935  .00003901  00000+0  51158-3 0  9990", "line2": "2 38212  74.0527  74.1891 0092348 140.8526 219.9379 14.77697426813280"}}, "geometry": {"type": "Point", "coordinates": [-120.99162246445606, 33.432341738552104]}}, {"type": "Feature", "properties": {"norad_id": 38220, "name": "COSMOS 2251 DEB", "group": "cosmos-2251-debris", "lat": 54.031909736167094, "lon": -141.85996208332415, "alt_km": 582.6054022278795, "timestamp": "2025-12-16T03:53:27.453466+00:00", "meta": {"OBJECT_NAME": "COSMOS 2251 DEB", "OBJECT_ID": "1993-036BTL", "EPOCH": "2025-12-15T04:49:52.785696", "MEAN_MOTION": 14.93090417, "ECCENTRICITY": 0.00048609, "INCLINATION": 74.0157, "RA_OF_ASC_NODE": 63.339, "ARG_OF_PERICENTER": 37.4502, "MEAN_ANOMALY": 322.7019, "EPHEMERIS_TYPE": 0, "CLASSIFICATION_TYPE": "U", "NORAD_CAT_ID": 38220, "ELEMENT_SET_NO": 999, "REV_AT_EPOCH": 71407, "BSTAR": 0.0016239947, "MEAN_MOTION_DOT": 0.00016931, "MEAN_MOTION_DDOT": 0}, "tle": {"line1": "1 38220U 93036BTL 25349.20130539  .00016931  00000+0  16240-2 0  9996", "line2": "2 38220  74.0157  63.3390 0004860  37.4502 322.7019 14.93090417714075"}}, "geometry": {"type": "Point", "coordinates": [-141.85996208332415, 54.031909736167094]}}, {"type": "Feature", "properties": {"norad_id": 38479, "name": "COSMOS 2251 DEB", "group": "cosmos-2251-debris", "lat": -57.87574127140825, "lon": 150.78578988165205, "alt_km": 711.92336050828, "timestamp": "2025-12-16T03:53:27.453477+00:00", "meta": {"OBJECT_NAME": "COSMOS 2251 DEB", "OBJECT_ID": "1993-036BTP", "EPOCH": "2025-12-13T19:29:32.997408", "MEAN_MOTION": 14.3831318, "ECCENTRICITY": 0.0084157, "INCLINATION": 74.007, "RA_OF_ASC_NODE": 182.3013, "ARG_OF_PERICENTER": 291.0961, "MEAN_ANOMALY": 83.9532, "EPHEMERIS_TYPE": 0, "CLASSIFICATION_TYPE": "U", "NORAD_CAT_ID": 38479, "ELEMENT_SET_NO": 999, "REV_AT_EPOCH": 64703, "BSTAR": 0.0021939338, "MEAN_MOTION_DOT": 6.938e-05, "MEAN_MOTION_DDOT": 0}, "tle": {"line1": "1 38479U 93036BTP 25347.81218747  .00006938  00000+0  21939-2 0  9992", "line2": "2 38479  74.0070 182.3013 0084157 291.0961  83.9532 14.38313180647034"}}, "geometry": {"type": "Point", "coordinates": [150.78578988165205, -57.87574127140825]}}, {"type": "Feature", "properties": {"norad_id": 38481, "name": "COSMOS 2251 DEB", "group": "cosmos-2251-debris", "lat": 28.195006170056, "lon": 10.529591354264104, "alt_km": 900.9438319095498, "timestamp": "2025-12-16T03:53:27.453487+00:00", "meta": {"OBJECT_NAME": "COSMOS 2251 DEB", "OBJECT_ID": "1993-036BTR", "EPOCH": "2025-12-15T07:05:48.999264", "MEAN_MOTION": 13.94840538, "ECCENTRICITY": 0.02346938, "INCLINATION": 73.9334, "RA_OF_ASC_NODE": 3.139, "ARG_OF_PERICENTER": 302.9247, "MEAN_ANOMALY": 54.9502, "EPHEMERIS_TYPE": 0, "CLASSIFICATION_TYPE": "U", "NORAD_CAT_ID": 38481, "ELEMENT_SET_NO": 999, "REV_AT_EPOCH": 59096, "BSTAR": 0.0014478089, "MEAN_MOTION_DOT": 2.419e-05, "MEAN_MOTION_DDOT": 0}, "tle": {"line1": "1 38481U 93036BTR 25349.29570601  .00002419  00000+0  14478-2 0  9999", "line2": "2 38481  73.9334   3.1390 0234693 302.9247  54.9502 13.94840538590964"}}, "geometry": {"type": "Point", "coordinates": [10.529591354264104, 28.195006170056]}}, {"type": "Feature", "properties": {"norad_id": 38483, "name": "COSMOS 2251 DEB", "group": "cosmos-2251-debris", "lat": -8.338741478103753, "lon": -172.00814177225428, "alt_km": 782.6493640147091, "timestamp": "2025-12-16T03:53:27.453497+00:00", "meta": {"OBJECT_NAME": "COSMOS 2251 DEB", "OBJECT_ID": "1993-036BTT", "EPOCH": "2025-12-12T08:16:48.530496", "MEAN_MOTION": 14.28787654, "ECCENTRICITY": 0.01107994, "INCLINATION": 74.262, "RA_OF_ASC_NODE": 12.4521, "ARG_OF_PERICENTER": 118.0167, "MEAN_ANOMALY": 243.2246, "EPHEMERIS_TYPE": 0, "CLASSIFICATION_TYPE": "U", "NORAD_CAT_ID": 38483, "ELEMENT_SET_NO": 999, "REV_AT_EPOCH": 63472, "BSTAR": 0.0012977102, "MEAN_MOTION_DOT": 3.471e-05, "MEAN_MOTION_DDOT": 0}, "tle": {"line1": "1 38483U 93036BTT 25346.34500614  .00003471  00000+0  12977-2 0  9992", "line2": "2 38483  74.2620  12.4521 0110799 118.0167 243.2246 14.28787654634722"}}, "geometry": {"type": "Point", "coordinates": [-172.00814177225428, -8.338741478103753]}}, {"type": "Feature", "properties": {"norad_id": 38486, "name": "COSMOS 2251 DEB", "group": "cosmos-2251-debris", "lat": -3.6222077462035047, "lon": -162.8950948580302, "alt_km": 632.8585843273795, "timestamp": "2025-12-16T03:53:27.453508+00:00", "meta": {"OBJECT_NAME": "COSMOS 2251 DEB", "OBJECT_ID": "1993-036BTW", "EPOCH": "2025-12-14T08:43:16.817376", "MEAN_MOTION": 14.73317924, "ECCENTRICITY": 0.00302546, "INCLINATION": 73.9417, "RA_OF_ASC_NODE": 201.6743, "ARG_OF_PERICENTER": 345.7172, "MEAN_ANOMALY": 193.9267, "EPHEMERIS_TYPE": 0, "CLASSIFICATION_TYPE": "U", "NORAD_CAT_ID": 38486, "ELEMENT_SET_NO": 999, "REV_AT_EPOCH": 75458, "BSTAR": 0.0022812423, "MEAN_MOTION_DOT": 0.00014869, "MEAN_MOTION_DDOT": 0}, "tle": {"line1": "1 38486U 93036BTW 25348.36338909  .00014869  00000+0  22812-2 0  9997", "line2": "2 38486  73.9417 201.6743 0030254 345.7172 193.9267 14.73317924754585"}}, "geometry": {"type": "Point", "coordinates": [-162.8950948580302, -3.6222077462035047]}}, {"type": "Feature", "properties": {"norad_id": 38487, "name": "COSMOS 2251 DEB", "group": "cosmos-2251-debris", "lat": -40.75927401729271, "lon": 12.306847000645107, "alt_km": 526.380707063573, "timestamp": "2025-12-16T03:53:27.453519+00:00", "meta": {"OBJECT_NAME": "COSMOS 2251 DEB", "OBJECT_ID": "1993-036BTX", "EPOCH": "2025-12-15T09:05:37.644288", "MEAN_MOTION": 15.17550331, "ECCENTRICITY": 0.00212693, "INCLINATION": 73.9757, "RA_OF_ASC_NODE": 28.2906, "ARG_OF_PERICENTER": 200.4312, "MEAN_ANOMALY": 159.6036, "EPHEMERIS_TYPE": 0, "CLASSIFICATION_TYPE": "U", "NORAD_CAT_ID": 38487, "ELEMENT_SET_NO": 999, "REV_AT_EPOCH": 66840, "BSTAR": 0.0011624487, "MEAN_MOTION_DOT": 0.00023508, "MEAN_MOTION_DDOT": 0}, "tle": {"line1": "1 38487U 93036BTX 25349.37890792  .00023508  00000+0  11624-2 0  9992", "line2": "2 38487  73.9757  28.2906 0021269 200.4312 159.6036 15.17550331668404"}}, "geometry": {"type": "Point", "coordinates": [12.306847000645107, -40.75927401729271]}}]}